[{"OBJECT_NAME":"EUTELSAT 7C","OBJECT_ID":"2019-034B","EPOCH":"2026-03-05T02:53:38.857632","MEAN_MOTION":1.00270612,"ECCENTRICITY":0.00032807,"INCLINATION":0.0718,"RA_OF_ASC_NODE":178.1433,"ARG_OF_PERICENTER":153.1021,"MEAN_ANOMALY":241.9864,"EPHEMERIS_TYPE":0,"CLASSIFICATION_TYPE":"U","NORAD_CAT_ID":44334,"ELEMENT_SET_NO":999,"REV_AT_EPOCH":579,"BSTAR":0,"MEAN_MOTION_DOT":3.9e-7,"MEAN_MOTION_DDOT":0},{"OBJECT_NAME":"BEIDOU-3 IGSO-2","OBJECT_ID":"2019-035A","EPOCH":"2026-02-26T16:31:51.989952","MEAN_MOTION":1.00247364,"ECCENTRICITY":0.00387345,"INCLINATION":55.2338,"RA_OF_ASC_NODE":159.8353,"ARG_OF_PERICENTER":206.4752,"MEAN_ANOMALY":153.7223,"EPHEMERIS_TYPE":0,"CLASSIFICATION_TYPE":"U","NORAD_CAT_ID":44337,"ELEMENT_SET_NO":999,"REV_AT_EPOCH":2456,"BSTAR":0,"MEAN_MOTION_DOT":-1.76e-6,"MEAN_MOTION_DDOT":0},{"OBJECT_NAME":"MERIDIAN 8","OBJECT_ID":"2019-046A","EPOCH":"2026-03-03T01:02:52.979136","MEAN_MOTION":2.00622693,"ECCENTRICITY":0.70419501,"INCLINATION":63.0175,"RA_OF_ASC_NODE":64.328,"ARG_OF_PERICENTER":274.5643,"MEAN_ANOMALY":15.0735,"EPHEMERIS_TYPE":0,"CLASSIFICATION_TYPE":"U","NORAD_CAT_ID":44453,"ELEMENT_SET_NO":999,"REV_AT_EPOCH":4821,"BSTAR":0,"MEAN_MOTION_DOT":-7.2e-7,"MEAN_MOTION_DDOT":0},{"OBJECT_NAME":"COSMOS 2539","OBJECT_ID":"2019-048A","EPOCH":"2026-03-05T05:29:51.687744","MEAN_MOTION":1.00275091,"ECCENTRICITY":6.234e-5,"INCLINATION":0.0186,"RA_OF_ASC_NODE":111.8415,"ARG_OF_PERICENTER":252.9215,"MEAN_ANOMALY":252.6553,"EPHEMERIS_TYPE":0,"CLASSIFICATION_TYPE":"U","NORAD_CAT_ID":44457,"ELEMENT_SET_NO":999,"REV_AT_EPOCH":2418,"BSTAR":0,"MEAN_MOTION_DOT":7.3e-7,"MEAN_MOTION_DDOT":0},{"OBJECT_NAME":"BREEZE-M R/B","OBJECT_ID":"2019-048B","EPOCH":"2026-03-04T14:12:37.322496","MEAN_MOTION":0.90283187,"ECCENTRICITY":0.07338181,"INCLINATION":6.5921,"RA_OF_ASC_NODE":73.9678,"ARG_OF_PERICENTER":127.4387,"MEAN_ANOMALY":239.7603,"EPHEMERIS_TYPE":0,"CLASSIFICATION_TYPE":"U","NORAD_CAT_ID":44458,"ELEMENT_SET_NO":999,"REV_AT_EPOCH":2161,"BSTAR":0,"MEAN_MOTION_DOT":-1.61e-6,"MEAN_MOTION_DDOT":0},{"OBJECT_NAME":"EDRS-C","OBJECT_ID":"2019-049A","EPOCH":"2026-03-05T06:07:03.121536","MEAN_MOTION":1.0027198,"ECCENTRICITY":0.00013006,"INCLINATION":0.0327,"RA_OF_ASC_NODE":119.0948,"ARG_OF_PERICENTER":233.8617,"MEAN_ANOMALY":44.286,"EPHEMERIS_TYPE":0,"CLASSIFICATION_TYPE":"U","NORAD_CAT_ID":44475,"ELEMENT_SET_NO":999,"REV_AT_EPOCH":2416,"BSTAR":0,"MEAN_MOTION_DOT":-2.71e-6,"MEAN_MOTION_DDOT":0},{"OBJECT_NAME":"INTELSAT 39 (IS-39)","OBJECT_ID":"2019-049B","EPOCH":"2026-03-05T05:47:38.745024","MEAN_MOTION":1.00269573,"ECCENTRICITY":7.1e-5,"INCLINATION":0.0243,"RA_OF_ASC_NODE":150.8895,"ARG_OF_PERICENTER":354.7393,"MEAN_ANOMALY":166.207,"EPHEMERIS_TYPE":0,"CLASSIFICATION_TYPE":"U","NORAD_CAT_ID":44476,"ELEMENT_SET_NO":999,"REV_AT_EPOCH":2408,"BSTAR":0,"MEAN_MOTION_DOT":0,"MEAN_MOTION_DDOT":0},{"OBJECT_NAME":"AMOS-17","OBJECT_ID":"2019-050A","EPOCH":"2026-03-05T05:31:14.056320","MEAN_MOTION":1.00271626,"ECCENTRICITY":0.00014386,"INCLINATION":0.046,"RA_OF_ASC_NODE":291.0471,"ARG_OF_PERICENTER":53.5443,"MEAN_ANOMALY":278.1492,"EPHEMERIS_TYPE":0,"CLASSIFICATION_TYPE":"U","NORAD_CAT_ID":44479,"ELEMENT_SET_NO":999,"REV_AT_EPOCH":2414,"BSTAR":0,"MEAN_MOTION_DOT":1.0e-6,"MEAN_MOTION_DDOT":0},{"OBJECT_NAME":"AEHF-5 (USA 292)","OBJECT_ID":"2019-051A","EPOCH":"2026-03-05T00:44:41.531136","MEAN_MOTION":1.00272011,"ECCENTRICITY":0.00715511,"INCLINATION":1.5625,"RA_OF_ASC_NODE":328.761,"ARG_OF_PERICENTER":3.3137,"MEAN_ANOMALY":294.9545,"EPHEMERIS_TYPE":0,"CLASSIFICATION_TYPE":"U","NORAD_CAT_ID":44481,"ELEMENT_SET_NO":999,"REV_AT_EPOCH":2421,"BSTAR":0,"MEAN_MOTION_DOT":-2.67e-6,"MEAN_MOTION_DDOT":0},{"OBJECT_NAME":"CZ-3C DEB","OBJECT_ID":"2010-057BM","EPOCH":"2026-02-26T04:46:34.591872","MEAN_MOTION":2.23732102,"ECCENTRICITY":0.7187168,"INCLINATION":20.0244,"RA_OF_ASC_NODE":102.4588,"ARG_OF_PERICENTER":154.5844,"MEAN_ANOMALY":273.2307,"EPHEMERIS_TYPE":0,"CLASSIFICATION_TYPE":"U","NORAD_CAT_ID":44527,"ELEMENT_SET_NO":999,"REV_AT_EPOCH":7592,"BSTAR":-0.00016975,"MEAN_MOTION_DOT":4.4e-7,"MEAN_MOTION_DDOT":0},{"OBJECT_NAME":"COSMOS 2541","OBJECT_ID":"2019-065A","EPOCH":"2026-03-05T02:18:06.917760","MEAN_MOTION":2.00629045,"ECCENTRICITY":0.64793315,"INCLINATION":62.715,"RA_OF_ASC_NODE":166.6245,"ARG_OF_PERICENTER":272.2049,"MEAN_ANOMALY":20.4086,"EPHEMERIS_TYPE":0,"CLASSIFICATION_TYPE":"U","NORAD_CAT_ID":44552,"ELEMENT_SET_NO":999,"REV_AT_EPOCH":4713,"BSTAR":0,"MEAN_MOTION_DOT":-3.0e-8,"MEAN_MOTION_DDOT":0},{"OBJECT_NAME":"FREGAT R/B","OBJECT_ID":"2019-065B","EPOCH":"2026-02-23T04:05:00.685248","MEAN_MOTION":2.0152903,"ECCENTRICITY":0.66789721,"INCLINATION":63.3412,"RA_OF_ASC_NODE":164.885,"ARG_OF_PERICENTER":261.4686,"MEAN_ANOMALY":23.5611,"EPHEMERIS_TYPE":0,"CLASSIFICATION_TYPE":"U","NORAD_CAT_ID":44553,"ELEMENT_SET_NO":999,"REV_AT_EPOCH":4720,"BSTAR":0,"MEAN_MOTION_DOT":-4.9e-6,"MEAN_MOTION_DDOT":0},{"OBJECT_NAME":"COSMOS 1897 DEB","OBJECT_ID":"1987-096G","EPOCH":"2026-03-03T09:50:34.585728","MEAN_MOTION":1.00472852,"ECCENTRICITY":0.00231304,"INCLINATION":11.0154,"RA_OF_ASC_NODE":327.0067,"ARG_OF_PERICENTER":298.5587,"MEAN_ANOMALY":258.872,"EPHEMERIS_TYPE":0,"CLASSIFICATION_TYPE":"U","NORAD_CAT_ID":44572,"ELEMENT_SET_NO":999,"REV_AT_EPOCH":6992,"BSTAR":0,"MEAN_MOTION_DOT":7.5e-7,"MEAN_MOTION_DDOT":0},{"OBJECT_NAME":"ARIANE 44LP DEB","OBJECT_ID":"1992-060J","EPOCH":"2026-03-04T14:56:26.293920","MEAN_MOTION":2.23470732,"ECCENTRICITY":0.719174,"INCLINATION":7.1909,"RA_OF_ASC_NODE":7.9349,"ARG_OF_PERICENTER":321.002,"MEAN_ANOMALY":83.6592,"EPHEMERIS_TYPE":0,"CLASSIFICATION_TYPE":"U","NORAD_CAT_ID":44573,"ELEMENT_SET_NO":999,"REV_AT_EPOCH":9720,"BSTAR":0.011541,"MEAN_MOTION_DOT":8.86e-6,"MEAN_MOTION_DDOT":0},{"OBJECT_NAME":"LUCH DEB","OBJECT_ID":"1994-082G","EPOCH":"2026-03-03T19:34:59.110752","MEAN_MOTION":1.00702749,"ECCENTRICITY":0.0016547,"INCLINATION":14.6056,"RA_OF_ASC_NODE":354.8501,"ARG_OF_PERICENTER":88.2846,"MEAN_ANOMALY":90.4887,"EPHEMERIS_TYPE":0,"CLASSIFICATION_TYPE":"U","NORAD_CAT_ID":44582,"ELEMENT_SET_NO":999,"REV_AT_EPOCH":4518,"BSTAR":0,"MEAN_MOTION_DOT":-2.38e-6,"MEAN_MOTION_DDOT":0},{"OBJECT_NAME":"SL-12 DEB","OBJECT_ID":"1999-027E","EPOCH":"2026-03-04T22:36:09.829152","MEAN_MOTION":1.46028123,"ECCENTRICITY":0.32581856,"INCLINATION":7.1478,"RA_OF_ASC_NODE":125.2592,"ARG_OF_PERICENTER":155.7103,"MEAN_ANOMALY":302.1021,"EPHEMERIS_TYPE":0,"CLASSIFICATION_TYPE":"U","NORAD_CAT_ID":44588,"ELEMENT_SET_NO":999,"REV_AT_EPOCH":6553,"BSTAR":0,"MEAN_MOTION_DOT":-8.9e-7,"MEAN_MOTION_DDOT":0},{"OBJECT_NAME":"EUTELSAT 5 WEST B","OBJECT_ID":"2019-067A","EPOCH":"2026-03-05T05:24:59.654016","MEAN_MOTION":1.00272817,"ECCENTRICITY":0.00032062,"INCLINATION":0.0933,"RA_OF_ASC_NODE":311.2659,"ARG_OF_PERICENTER":42.6829,"MEAN_ANOMALY":245.2296,"EPHEMERIS_TYPE":0,"CLASSIFICATION_TYPE":"U","NORAD_CAT_ID":44624,"ELEMENT_SET_NO":999,"REV_AT_EPOCH":2339,"BSTAR":0,"MEAN_MOTION_DOT":-5.1e-7,"MEAN_MOTION_DDOT":0}]
